1 41175U 15079B   18001.30827130  .00000087  00000-0  00000+0 0  9998
2 41175  54.9173 186.2408 0002072 320.6533  39.3506  1.70473517 12702
1 41175U 15079B   18001.89484592  .00000081  00000-0  00000-0 0  9998
2 41175  54.9173 186.2246 0002069 320.5082  39.4899  1.70473518 12714
1 41175U 15079B   18003.65457395  .00000066  00000-0  00000+0 0  9997
2 41175  54.9175 186.1758 0002078 321.4155  38.5676  1.70473528 12741
1 41175U 15079B   18004.24115206  .00000064  00000-0  00000-0 0  9994
2 41175  54.9176 186.1596 0002071 321.1932  38.7864  1.70473538 12758
1 41175U 15079B   18005.41431381  .00000062  00000-0  00000+0 0  9996
2 41175  54.9178 186.1272 0002075 321.2580  38.7174  1.70473552 12777
1 41175U 15079B   18005.41431381  .00000062  00000-0  00000-0 0  9997
2 41175  54.9178 186.1272 0002075 321.2580  38.7174  1.70473552 12777
1 41175U 15079B   18006.00089694  .00000063  00000-0  00000-0 0  9990
2 41175  54.9178 186.1109 0002069 321.1274  38.8476  1.70473567 12781
1 41175U 15079B   18006.58748105  .00000065  00000-0  00000+0 0  9993
2 41175  54.9178 186.0947 0002047 319.9826  39.9925  1.70473585 12796
1 41175U 15079B   18010.69358233  .00000074  00000-0  00000+0 0  9999
2 41175  54.9183 185.9813 0002051 318.9691  41.0133  1.70473657 12869
1 41175U 15079B   18010.69358233  .00000074  00000-0  00000-0 0  9990
2 41175  54.9183 185.9813 0002051 318.9691  41.0133  1.70473657 12869
1 41175U 15079B   18011.86674616  .00000072  00000-0  00000-0 0  9994
2 41175  54.9185 185.9487 0002032 316.3687  43.6117  1.70473679 12880
1 41175U 15079B   18013.03990565  .00000069  00000-0  00000+0 0  9994
2 41175  54.9183 185.9163 0002065 317.9617  42.0150  1.70473756 12904
1 41175U 15079B   18016.55937654  .00000062  00000-0  00000+0 0  9997
2 41175  54.9186 185.8191 0002066 317.1385  42.8186  1.70473757 12966
1 41175U 15079B   18022.42520294  .00000074  00000-0  00000+0 0  9991
2 41175  54.9190 185.6572 0002129 312.4921  47.4595  1.70473698 13067
1 41175U 15079B   18023.59837694  .00000077  00000-0  00000+0 0  9998
2 41175  54.9191 185.6248 0002135 312.1688  47.7867  1.70473681 13081
1 41175U 15079B   18023.59837694  .00000077  00000-0  00000-0 0  9999
2 41175  54.9191 185.6248 0002135 312.1688  47.7867  1.70473681 13081
1 41175U 15079B   18024.77154769  .00000079  00000-0  00000+0 0  9996
2 41175  54.9191 185.5924 0002153 311.3433  48.6141  1.70473660 13105
1 41175U 15079B   18025.35813119  .00000078  00000-0  00000-0 0  9992
2 41175  54.9191 185.5762 0002164 310.9030  49.0542  1.70473650 13115
1 41175U 15079B   18026.53129336  .00000072  00000-0  00000+0 0  9997
2 41175  54.9192 185.5437 0002181 310.3056  49.6483  1.70473635 13131
1 41175U 15079B   18030.05075183  .00000037  00000-0  00000+0 0  9990
2 41175  54.9192 185.4462 0002244 308.7784  51.1493  1.70473653 13192
1 41175U 15079B   18030.63732905  .00000032  00000-0  00000-0 0  9992
2 41175  54.9190 185.4299 0002202 310.0906  49.8338  1.70473667 13203
1 41175U 15079B   18031.81048708  .00000025  00000-0  00000+0 0  9995
2 41175  54.9191 185.3975 0002224 309.5271  50.3916  1.70473684 13226
1 41175U 15079B   18031.81048708  .00000025  00000-0  00000-0 0  9996
2 41175  54.9191 185.3975 0002224 309.5271  50.3916  1.70473684 13226
1 41175U 15079B   18032.98365126  .00000023  00000-0  00000+0 0  9998
2 41175  54.9190 185.3651 0002245 308.5874  51.3297  1.70473709 13240
1 41175U 15079B   18032.98365126  .00000023  00000-0  00000-0 0  9999
2 41175  54.9190 185.3651 0002245 308.5874  51.3297  1.70473709 13240
1 41175U 15079B   18034.74340700  .00000027  00000-0  00000+0 0  9999
2 41175  54.9194 185.3166 0002287 307.9040  52.0174  1.70473789 13272
1 41175U 15079B   18036.50316931  .00000031  00000-0  00000+0 0  9999
2 41175  54.9191 185.2676 0002303 308.0692  51.8598  1.70473828 13303
1 41175U 15079B   18037.08975558  .00000031  00000-0  00000-0 0  9990
2 41175  54.9191 185.2514 0002315 307.7054  52.2256  1.70473842 13318
1 41175U 15079B   18038.84950985  .00000028  00000-0  00000+0 0  9997
2 41175  54.9193 185.2031 0002352 306.6914  53.2422  1.70473885 13344
1 41175U 15079B   18039.43609222  .00000027  00000-0  00000-0 0  9998
2 41175  54.9193 185.1869 0002361 306.4807  53.4525  1.70473890 13354
1 41175U 15079B   18040.02267362  .00000024  00000-0  00000+0 0  9996
2 41175  54.9192 185.1706 0002380 305.9035  54.0286  1.70473902 13367
1 41175U 15079B   18040.02267362  .00000024  00000-0  00000-0 0  9997
2 41175  54.9192 185.1706 0002380 305.9035  54.0286  1.70473902 13367
1 41175U 15079B   18041.78241428  .00000018  00000-0  00000+0 0  9998
2 41175  54.9192 185.1221 0002406 304.8790  55.0476  1.70473909 13396
1 41175U 15079B   18043.54215278  .00000015  00000-0  00000-0 0  9996
2 41175  54.9193 185.0735 0002434 304.0920  55.8278  1.70473909 13426
1 41175U 15079B   18043.54215296  .00000015  00000-0  00000+0 0  9995
2 41175  54.9194 185.0737 0002415 304.5970  55.3231  1.70473913 13427
1 41175U 15079B   18045.88847715  .00000015  00000-0  00000+0 0  9991
2 41175  54.9192 185.0088 0002466 302.9224  56.9927  1.70473906 13469
1 41175U 15079B   18045.88847715  .00000015  00000-0  00000-0 0  9992
2 41175  54.9192 185.0088 0002466 302.9224  56.9927  1.70473906 13469
1 41175U 15079B   18046.47506051  .00000016  00000-0  00000-0 0  9994
2 41175  54.9192 184.9927 0002483 302.5798  57.3356  1.70473901 13477
1 41175U 15079B   18047.06164487  .00000018  00000-0  00000+0 0  9994
2 41175  54.9192 184.9766 0002504 302.2350  57.6812  1.70473898 13489
1 41175U 15079B   18048.23481594  .00000021  00000-0  00000-0 0  9990
2 41175  54.9190 184.9439 0002539 301.3759  58.5440  1.70473897 13504
1 41175U 15079B   18050.58116911  .00000030  00000-0  00000+0 0  9998
2 41175  54.9190 184.8790 0002578 300.6339  59.2987  1.70473865 13545
1 41175U 15079B   18052.34093005  .00000032  00000-0  00000+0 0  9994
2 41175  54.9190 184.8306 0002626 300.1504  59.7893  1.70473840 13578
1 41175U 15079B   18053.51409738  .00000029  00000-0  00000-0 0  9995
2 41175  54.9189 184.7980 0002667 299.8037  60.1367  1.70473824 13599
1 41175U 15079B   18054.10067855  .00000026  00000-0  00000+0 0  9997
2 41175  54.9188 184.7819 0002688 299.5612  60.3780  1.70473818 13604
1 41175U 15079B   18055.86041224  .00000009  00000-0  00000+0 0  9994
2 41175  54.9188 184.7332 0002762 298.6992  61.2314  1.70473829 13636
1 41175U 15079B   18057.03356488 -.00000003  00000-0  00000+0 0  9991
2 41175  54.9187 184.7008 0002828 298.0843  61.8389  1.70473845 13655
1 41175U 15079B   18057.03356488 -.00000003  00000-0  00000-0 0  9992
2 41175  54.9187 184.7008 0002828 298.0843  61.8389  1.70473845 13655
1 41175U 15079B   18058.20672265 -.00000013  00000-0  00000+0 0  9996
2 41175  54.9187 184.6683 0002842 298.0209  61.8970  1.70473850 13679
1 41175U 15079B   18059.96646873 -.00000019  00000-0  00000+0 0  9992
2 41175  54.9187 184.6198 0002864 297.4592  62.4575  1.70473887 13704
1 41175U 15079B   18061.13964101 -.00000017  00000-0  00000+0 0  9999
2 41175  54.9187 184.5874 0002900 297.0781  62.8427  1.70473910 13720
1 41175U 15079B   18063.48599535 -.00000009  00000-0  00000+0 0  9995
2 41175  54.9185 184.5226 0002970 296.1687  63.7663  1.70473976 13769
1 41175U 15079B   18065.24575796 -.00000008  00000-0  00000+0 0  9993
2 41175  54.9185 184.4740 0003112 295.3588  64.5842  1.70474009 13798
1 41175U 15079B   18065.83234279 -.00000009  00000-0  00000-0 0  9998
2 41175  54.9184 184.4578 0003109 295.1369  64.8082  1.70474037 13809
1 41175U 15079B   18068.76525610 -.00000016  00000-0  00000+0 0  9992
2 41175  54.9181 184.3769 0003135 294.5283  65.4178  1.70474096 13857
1 41175U 15079B   18070.52499747 -.00000018  00000-0  00000+0 0  9992
2 41175  54.9179 184.3282 0003193 293.7947  66.1480  1.70474121 13882
1 41175U 15079B   18071.11157804 -.00000018  00000-0  00000-0 0  9994
2 41175  54.9179 184.3121 0003209 293.5344  66.4074  1.70474129 13892
1 41175U 15079B   18072.28474173 -.00000017  00000-0  00000+0 0  9992
2 41175  54.9179 184.2798 0003243 293.1137  66.8275  1.70474129 13915
1 41175U 15079B   18074.63108053 -.00000010  00000-0  00000+0 0  9997
2 41175  54.9177 184.2151 0003333 292.3659  67.5809  1.70474115 13956
1 41175U 15079B   18075.80425638 -.00000004  00000-0  00000+0 0  9991
2 41175  54.9176 184.1827 0003346 292.2472  67.7065  1.70474100 13972
1 41175U 15079B   18080.49695970  .00000012  00000-0  00000+0 0  9998
2 41175  54.9172 184.0531 0003533 291.1343  68.8460  1.70474021 14055
1 41175U 15079B   18082.84328108 -.00000002  00000-0  00000+0 0  9995
2 41175  54.9170 183.9881 0003644 290.7447  69.2309  1.70474008 14098
1 41175U 15079B   18086.36275519 -.00000026  00000-0  00000-0 0  9990
2 41175  54.9169 183.8910 0003763 290.3828  69.5806  1.70474040 14157
1 41175U 15079B   18086.36275585 -.00000026  00000-0  00000+0 0  9992
2 41175  54.9169 183.8910 0003747 290.4989  69.4647  1.70474035 14154
1 41175U 15079B   18091.64204171 -.00000009  00000-0  00000+0 0  9993
2 41175  54.9167 183.7450 0003967 289.4544  70.5367  1.70474151 14240
1 41175U 15079B   18092.22862947 -.00000009  00000-0  00000-0 0  9990
2 41175  54.9167 183.7288 0003965 289.4708  70.5236  1.70474158 14252
1 41175U 15079B   18092.81521564 -.00000008  00000-0  00000+0 0  9990
2 41175  54.9166 183.7127 0003990 289.3342  70.6626  1.70474173 14266
1 41175U 15079B   18094.57496772 -.00000011  00000-0  00000+0 0  9991
2 41175  54.9165 183.6639 0004043 289.1283  70.8719  1.70474206 14299
1 41175U 15079B   18095.74813101 -.00000012  00000-0  00000+0 0  9991
2 41175  54.9164 183.6315 0004081 288.8976  71.1018  1.70474224 14315
1 41175U 15079B   18097.50787250 -.00000013  00000-0  00000+0 0  9993
2 41175  54.9164 183.5829 0004141 288.5760  71.4205  1.70474240 14341
1 41175U 15079B   18099.26761607 -.00000009  00000-0  00000+0 0  9991
2 41175  54.9164 183.5343 0004228 288.1849  71.8094  1.70474223 14376
